satname,norad_id,inclination_deg,eccentricity,mean_motion_rev_per_day,perigee_km,apogee_km,l1,l2
STARLINK-1274,45387,53.0344,0.0005529,15.33119514,462.7273568417195,470.29616944400277,1 45387U 20019AD  25338.33803175  .00094618  00000+0  28897-2 0  9993,2 45387  53.0344 193.9973 0005529  86.1561 274.0071 15.33119514315921
STARLINK-1280,45388,53.052,0.0010125,15.45724982,422.3562106590989,436.14116667865346,1 45388U 20019AE  25337.94116725  .00124293  00000+0  24953-2 0  9990,2 45388  53.0520 225.3257 0010125 109.1683 251.0420 15.45724982315446
STARLINK-1283,45389,53.051,0.000982,15.35123947,453.8367698550019,467.26795576355926,1 45389U 20019AF  25338.63501058  .00123396  00000+0  35170-2 0  9991,2 45389  53.0510 203.4888 0009820 118.3054 241.8940 15.35123947315826
STARLINK-1284,45390,53.0539,0.0001376,15.06419468,546.1989722132284,548.1048117162964,1 45390U 20019AG  25338.08062791  .00008919  00000+0  61655-3 0  9999,2 45390  53.0539 215.8273 0001376  85.1835 274.9311 15.06419468315597
STARLINK-1297,45395,53.0537,0.0001539,15.0640811,546.1208947500972,548.2525093855929,1 45395U 20019AM  25338.64826527  .00004790  00000+0  34014-3 0  9993,2 45395  53.0537 213.2765 0001539  90.7962 269.3203 15.06408110314861
STARLINK-1307,45397,53.0544,0.000155,15.06391678,546.1636308072239,548.310496766997,1 45397U 20019AP  25338.37551542  .00001280  00000+0  10480-3 0  9999,2 45397  53.0544 214.5005 0001550  98.0370 262.0795 15.06391678315462
STARLINK-1255,45399,53.0461,0.0007856,15.35027566,455.4659180641638,466.21131655407953,1 45399U 20019AR  25337.99237039  .00115882  00000+0  33186-2 0  9991,2 45399  53.0461 197.5731 0007856 124.3189 235.8557 15.35027566315653
STARLINK-1260,45404,53.0524,0.0001342,15.06401959,546.2761729211998,548.1349348626645,1 45404U 20019AW  25338.64181014  .00002488  00000+0  18583-3 0  9994,2 45404  53.0524 203.3027 0001342  81.2961 278.8180 15.06401959315533
STARLINK-1263,45405,53.052,0.0002001,15.06422272,545.757549719352,548.5290468947351,1 45405U 20019AX  25338.62706638  .00010420  00000+0  71695-3 0  9996,2 45405  53.0520 203.3752 0002001  85.6825 274.4393 15.06422272315534
STARLINK-1265,45406,53.0533,0.0001671,15.0640542,546.0377235004516,548.352169436962,1 45406U 20019AY  25338.63444263  .00003586  00000+0  25947-3 0  9995,2 45406  53.0533 203.3397 0001671  93.0695 267.0486 15.06405420315531
STARLINK-1278,45408,53.0514,0.0009072,15.38219809,445.177731806044,457.56919559137896,1 45408U 20019BA  25338.39335123  .00083417  00000+0  21670-2 0  9993,2 45408  53.0514 225.2618 0009072 104.6338 255.5672 15.38219809315210
STARLINK-1296,45412,53.0536,0.0001446,15.06401826,546.2045569246884,548.207366109159,1 45412U 20019BE  25338.37273456  .00000810  00000+0  73231-4 0  9994,2 45412  53.0536 204.5101 0001446  92.9646 267.1509 15.06401826315499
STARLINK-1298,45413,53.0441,0.0008204,15.59021804,384.93390213753173,396.0398602017549,1 45413U 20019BF  25338.75002315 -.00032393  00000+0 -40288-3 0  9999,2 45413  53.0441 166.9678 0008204  82.8106 250.7446 15.59021804  5961
STARLINK-1309,45414,53.0536,0.0001629,15.06403395,546.0730151867028,548.3292903568763,1 45414U 20019BG  25338.05574791  .00004749  00000+0  33744-3 0  9996,2 45414  53.0536 205.9374 0001629  95.0043 265.1132 15.06403395315433
STARLINK-1316,45415,53.0554,0.0001503,15.06397388,546.1786822621762,548.2604444451208,1 45415U 20019BH  25338.61232309  .00001186  00000+0  98497-4 0  9994,2 45415  53.0554 203.4386 0001503  88.6804 271.4357 15.06397388315550
STARLINK-1318,45416,53.0468,0.0003985,15.65620012,368.7664895607859,374.1459153431397,1 45416U 20019BJ  25338.64751113  .00160295  00000+0  15376-2 0  9997,2 45416  53.0468 157.2148 0003985 149.6009 210.5237 15.65620012316198
STARLINK-1286,45417,53.0523,0.0005659,15.39685661,443.1757356789394,450.90046885968786,1 45417U 20019BK  25337.99696994  .00104336  00000+0  25761-2 0  9993,2 45417  53.0523 227.1654 0005659 107.5104 252.6518 15.39685661315425
STARLINK-1308,45419,53.0521,0.0001357,15.06405203,546.25584390316,548.1353791739311,1 45419U 20019BM  25338.44738008  .00005683  00000+0  40002-3 0  9990,2 45419  53.0521 234.1749 0001357  94.2888 265.8256 15.06405203315117
STARLINK-1329,45531,53.0527,0.000311,15.06943194,543.393980864621,547.7005124660463,1 45531U 20025A   25338.68107088  .00116417  00000+0  75940-2 0  9992,2 45531  53.0527 173.1252 0003110  76.6243 283.5093 15.06943194310776
STARLINK-1338,45532,53.0525,0.0001304,15.06403799,546.2968506412435,548.1029785085648,1 45532U 20025B   25338.69249045  .00003477  00000+0  25218-3 0  9999,2 45532  53.0525 173.0762 0001304  87.6725 272.4414 15.06403799310776
STARLINK-1350,45535,53.0737,0.0001864,15.33370018,464.49057367597015,467.0419808177285,1 45535U 20025E   25338.65068149  .00024299  00000+0  75192-3 0  9993,2 45535  53.0737 118.5655 0001864 100.6634 259.4577 15.33370018311565
STARLINK-1362,45538,53.0529,0.0001451,15.06417824,546.1520703347242,548.1617906333504,1 45538U 20025H   25337.86217673  .00005882  00000+0  41321-3 0  9990,2 45538  53.0529 176.5226 0001451  89.0646 271.0509 15.06417824310651
STARLINK-1368,45540,53.0537,0.0001566,15.06407924,546.102766344985,548.2717779070144,1 45540U 20025K   25337.86683800  .00002027  00000+0  15490-3 0  9998,2 45540  53.0537 176.7835 0001566  88.4654 271.6514 15.06407924310641
STARLINK-1371,45542,53.0541,0.0001617,15.06393801,546.1107251116364,548.3503889795857,1 45542U 20025M   25338.69985647 -.00000560  00000+0 -18685-4 0  9998,2 45542  53.0541 173.0408 0001617  89.7097 270.4077 15.06393801310779
STARLINK-1372,45543,53.0541,0.0001508,15.0640151,546.1625881449772,548.2512718742673,1 45543U 20025N   25337.87421427  .00000706  00000+0  66262-4 0  9993,2 45543  53.0541 176.7518 0001508  93.0478 267.0683 15.06401510309749
STARLINK-1373,45544,53.054,0.0001461,15.06405213,546.183789800094,548.2073719802302,1 45544U 20025P   25338.68880321  .00001898  00000+0  14623-3 0  9992,2 45544  53.0540 173.0929 0001461  88.7705 271.3451 15.06405213310777
STARLINK-1294,45551,53.0452,0.0002556,15.66239434,367.9517750809291,371.40125735041966,1 45551U 20025W   25338.75002315  .00162389  00000+0  15193-2 0  9992,2 45551  53.0452  92.1382 0002556 151.8129  92.4926 15.66239434  5977
STARLINK-1325,45554,53.0515,0.0007597,15.75108402,339.2156759618583,349.42978127352035,1 45554U 20025Z   25338.75002315  .00248523  00000+0  15850-2 0  9990,2 45554  53.0515  83.8789 0007597 345.8273 319.5058 15.75108402  5916
STARLINK-1327,45555,53.0542,0.0001438,15.06399112,546.2184140177224,548.2101450457167,1 45555U 20025AA  25338.66115523  .00000596  00000+0  58905-4 0  9993,2 45555  53.0542 153.2187 0001438  91.3764 268.7390 15.06399112311049
STARLINK-1356,45564,53.0543,0.0001337,15.06399522,546.2871036417537,548.138942237887,1 45564U 20025AK  25338.66484406  .00001064  00000+0  90280-4 0  9995,2 45564  53.0543 153.2000 0001337  92.2855 267.8287 15.06399522311043
STARLINK-1357,45565,53.0587,0.0007267,15.37956689,447.18881748093827,457.1159600785895,1 45565U 20025AL  25338.75002315  .00076357  00000+0  20042-2 0  9995,2 45565  53.0587 130.9688 0007267 133.2113 129.9235 15.37956689  5786
STARLINK-1361,45567,53.055,0.0001538,15.06388804,546.1807483925304,548.3109961640439,1 45567U 20025AN  25338.68328197  .00001178  00000+0  98020-4 0  9990,2 45567  53.0550 153.1157 0001538  92.9440 267.1725 15.06388804311058
STARLINK-1363,45568,53.051,0.0006417,15.47857861,418.62945039206716,427.35802157863054,1 45568U 20025AP  25338.75002315  .00003113  00000+0  67229-4 0  9998,2 45568  53.0510 141.2570 0006417 192.3721 358.4505 15.47857861  5925
STARLINK-1366,45569,53.051,0.0005313,15.45005334,427.7445122536001,434.98028631527905,1 45569U 20025AQ  25338.65552263  .00150864  00000+0  30954-2 0  9999,2 45569  53.0510 141.6341 0005313 199.4635 160.6168 15.45005334311209
STARLINK-1376,45570,53.0549,0.0001334,15.06395766,546.3006913401523,548.1483777975745,1 45570U 20025AR  25338.67958811  .00001225  00000+0  10116-3 0  9997,2 45570  53.0549 153.1373 0001334  93.8038 266.3103 15.06395766311042
STARLINK-1320,45572,53.0542,0.0005759,15.47655221,419.6702741066201,427.5045002557754,1 45572U 20025AT  25338.75002315  .00053017  00000+0  10109-2 0  9994,2 45572  53.0542  86.8448 0005759 110.7125 271.6370 15.47655221  5936
STARLINK-1321,45573,53.0543,0.00013,15.06397173,546.3199258607674,548.120518738564,1 45573U 20025AU  25338.66576237  .00001549  00000+0  12287-3 0  9997,2 45573  53.0543 143.1984 0001300  89.9423 270.1715 15.06397173310880
STARLINK-1328,45576,53.0447,0.0003816,15.82629366,320.4510393165574,325.5653533303921,1 45576U 20025AX  25338.75002315  .00294150  00000+0  13303-2 0  9992,2 45576  53.0447 102.3059 0003816 173.3116 333.2900 15.82629366  6006
STARLINK-1331,45578,53.0533,0.0001162,15.0640748,546.3839100719124,547.9933557489994,1 45578U 20025AZ  25338.64365056  .00006110  00000+0  42863-3 0  9997,2 45578  53.0533 143.2962 0001162  87.0707 273.0415 15.06407480311198
STARLINK-1333,45580,53.0533,0.0001285,15.06400346,546.3205903448843,548.1004046517419,1 45580U 20025BB  25338.65009661  .00001114  00000+0  93664-4 0  9993,2 45580  53.0533 153.2652 0001285  91.2837 268.8300 15.06400346311048
STARLINK-1335,45581,53.0553,0.0001304,15.06400892,546.3057589926366,548.1118891835586,1 45581U 20025BC  25338.65470882  .00002093  00000+0  15936-3 0  9993,2 45581  53.0553 143.2489 0001304  90.8302 269.2836 15.06400892311182
STARLINK-1337,45582,53.0538,0.0001369,15.06397521,546.2710744689375,548.1672369843745,1 45582U 20025BD  25338.67682269  .00000674  00000+0  64147-4 0  9992,2 45582  53.0538 143.1495 0001369  92.0164 268.0982 15.06397521311186
STARLINK-1347,45586,53.0517,0.0006849,15.36809799,450.86977824999667,460.2305629362745,1 45586U 20025BH  25338.75002315  .00076742  00000+0  20905-2 0  9994,2 45586  53.0517 121.6416 0006849 134.1041  31.3955 15.36809799  5786
